1 39610U 91050S   18241.81397785 +.00001855 +00000-0 +47758-3 0  9991
2 39610 098.4011 200.7304 0028658 007.7709 352.3924 14.51064658241183
1 39316U 94029AFB 18241.41047662  .00001886  00000-0  12697-3 0  9993
2 39316  82.0083 119.6547 0072538 122.5932 359.6637 15.03938872797274
1 39798U 08046K   18240.42564106 -.00000362 +00000-0 -17246-2 0  9992
2 39798 064.6603 335.1816 5672592 035.4064 351.5411 04.23024490065658
1 39720U 92093KL  18242.35023161  .00000265  00000-0  92011-4 0  9992
2 39720  70.7892 219.1574 0032100 347.0118  13.0188 14.44345190251212
1 39584U 93036BUP 18241.76029316  .00001733  00000-0  28109-3 0  9997
2 39584  74.0998 279.4987 0044712   7.9100 107.2387 14.71368531254962
1 39782U 97051AAP 18241.28397080  .00002965  00000-0  50363-3 0  9996
2 39782  86.4123  77.3938 0017491  70.6107  55.0066 14.68766518350793
1 39707U 92093JX  18240.83753814  .00000308  00000-0  17133-3 0  9992
2 39707  71.1147  53.6035 0106400 235.8239 123.2764 14.15763102241242
1 39306U 94029AER 18238.97147112  .00000900  00000-0  19925-3 0  9997
2 39306  81.7660 123.2232 0347792  93.6718 270.4298 14.24692834791600
1 39849U 92093LB  18241.80023937 +.00000007 +00000-0 +33762-4 0  9996
2 39849 070.8680 008.6014 0087184 087.8046 273.3050 14.02680110217388
1 39546U 93036BUC 18242.34694799  .00000554  00000-0  11655-3 0  9991
2 39546  74.0023 244.5709 0075424 338.5032  21.2970 14.60421933410517
1 39628U 14014E   18241.80812356 +.00000446 +00000-0 +11248-3 0  9990
2 39628 098.3435 317.9065 0103190 335.6441 023.9897 14.53000598233767
1 39803U 08046Q   18240.77167511 -.00000355  00000-0 -21036-2 0  9990
2 39803  64.7022 340.4945 5653854  34.6565 351.6704  4.22618127 65550
1 39723U 92093KP  18210.87511842 +.00000407 +00000-0 +21649-3 0  9991
2 39723 071.0884 041.4173 0058776 317.2883 041.4140 14.18463285078404
1 39322U 94029AFH 18236.90008193 +.00000196 +00000-0 +38303-4 0  9990
2 39322 081.9327 296.8535 0283940 006.4978 113.5644 14.35818979272054
1 39329U 08011DG  14094.23208973  .00000258  00000-0  40004-2 0  9993
2 39329  48.8901 118.1387 6451277 309.5527   9.1345  3.06671036 27609
1 39587U 93036BUS 18236.50044023 +.00000820 +00000-0 +60356-4 0  9995
2 39587 074.0122 291.6667 0110799 354.0644 005.9220 15.00663801245469
1 39785U 97051AAS 18124.26512822 +.00016015 +00000-0 +12422-2 0  9994
2 39785 086.3825 120.3373 0026513 314.3215 104.3546 15.01000634333407
1 39710U 92093KA  18232.56281480 +.00000297 +00000-0 +19504-3 0  9993
2 39710 071.2190 299.1390 0086333 262.3545 096.7764 14.07952227224764
1 39309U 94029AEU 18241.37556090 +.00000400 +00000-0 +88283-4 0  9996
2 39309 081.7440 116.9091 0273798 128.1058 234.5162 14.34098257328276
1 39852U 92093LE  18239.58385623  .00000677  00000-0  22717-3 0  9995
2 39852  71.0112 327.2453 0006706 269.1342 151.9532 14.40821406806463
1 39549U 93036BUF 18241.05174947  .00001909  00000-0  41369-3 0  9999
2 39549  74.0246   5.8419 0016395 257.9088 220.5892 14.58813848369810
1 39319U 94029AFE 18241.87622267  .00000151  00000-0  20707-4 0  9992
2 39319  81.9457 298.8484 0199430 237.2473 120.9373 14.59877088864154
1 39692U 91009DF  18235.86493615 +.00000093 +00000-0 +82223-3 0  9991
2 39692 074.0919 201.2890 0103247 236.1014 123.0178 12.37856376196575
1 39836U 91009DU  18238.30779264 -.00000033  00000-0 -13910-3 0  9993
2 39836  73.9100 204.1494 0138242 246.2285 182.9866 12.29304189372533
1 39839U 91009DX  18242.00194750  .00000000  00000-0  11455-3 0  9993
2 39839  73.8341 356.5404 0091608 226.7785 132.5590 12.49387221548739
1 39535U 99025EWC 16300.43033965  .00000416  00000-0  30618-3 0  9995
2 39535  99.1283   3.3428 0055572 109.2333 225.5021 14.00536197194337
1 39590U 93036BUV 18241.84787549 +.00001363 +00000-0 +32178-3 0  9992
2 39590 074.0311 022.9185 0019611 021.9077 132.4100 14.55087163238289
1 39788U 97051AAV 18235.93320661  .00142803  00000-0  44079-2 0  9990
2 39788  86.2980 112.0974 0026203  90.5137 269.9116 15.32661821403301
1 39713U 92093KD  18241.26646606  .00000219  00000-0  15056-3 0  9990
2 39713  71.1152 212.4045 0088312  75.3858 285.7033 14.07811195703979
1 39312U 94029AEX 18239.25343156 +.00000483 +00000-0 +82761-4 0  9997
2 39312 081.9876 232.2283 0257623 311.7005 046.2398 14.47745076274845
1 39855U 92093LH  18241.57515735 +.00002260 +00000-0 +73353-3 0  9991
2 39855 070.5263 327.2237 0104355 197.0004 162.7623 14.36981896221265
1 39553U 93036BUK 18241.59423998  .00000189  00000-0  13814-3 0  9999
2 39553  74.0263 214.5230 0225678 231.2195 126.8585 13.91271173385285
1 39695U 91009DJ  14188.70614749 -.00000008 +00000-0 +52396-4 0  9999
2 39695 074.0640 324.1278 0142732 046.6414 314.6408 12.18269099435966
1 39214U 13037G   18242.24012951  .00000037  00000-0  14747-4 0  9991
2 39214  97.9991 244.5761 0014497 128.8659 231.3842 14.68418616273592
1 39698U 91009DM  18238.17456112  .00000029  00000-0  39058-3 0  9992
2 39698  74.0477 182.3636 0183394  12.8766  48.9831 12.20904512635590
1 39231U 13037H   18241.43207319 +.00000201 +00000-0 +98602-4 0  9999
2 39231 098.1184 110.3109 0254783 212.7256 145.7913 14.11556050258025
1 39842U 92093KU  18240.68205016  .00004139  00000-0  62749-3 0  9990
2 39842  70.9597 344.8006 0042021  56.5682 303.9478 14.74161359812085
1 39539U 99025EWG 18241.09788480  .00001746  00000-0  20295-3 0  9993
2 39539  98.9579 293.3702 0105612 289.0654  69.9142 14.83076540278762
1 39595U 97051AAH 18238.29561464  .00002839  00000-0  54269-3 0  9993
2 39595  86.3766  89.0654 0058948 112.6296 248.1165 14.62424974291082
1 39792U 97051AAZ 18241.35662329  .00002035  00000-0  10976-2 0  9999
2 39792  86.4380 209.8358 0177765 210.4493 148.6272 14.04564606230878
1 39716U 92093KG  17048.28844711 +.00000391 +00000-0 +26303-3 0  9994
2 39716 071.1354 019.7223 0102496 224.4094 134.8799 14.04114982646179
1 39858U 92093LL  18238.06549000 +.00000643 +00000-0 +17937-3 0  9995
2 39858 070.9479 014.0048 0052647 028.3481 092.9404 14.49375153223049
1 39777U 97051AAJ 18241.99079718  .00001553  00000-0  62128-3 0  9997
2 39777  85.9810 335.6152 0088753 169.8692 190.4316 14.25634145247791
1 39701U 91009DQ  18219.87683077  .00000116  00000-0  11611-2 0  9996
2 39701  74.0171  55.1565 0133071 344.8617  14.5642 12.24473079211103
1 39302U 92093JT  18241.66801191  .00000449  00000-0  25184-3 0  9998
2 39302  70.9718 233.8221 0157473 322.1526 157.4096 14.09823460704011
1 39845U 92093KX  16232.85737812 -.00004155  00000-0  00000+0 0  9992
2 39845  70.9753 305.2670 0138961 293.8305  64.8812 14.03248279653422
1 39542U 99025EWK 15301.24878129 +.00001873 +00000-0 +14621-2 0  9994
2 39542 098.2292 227.7271 0283666 116.1640 242.2010 13.76015015130155
1 39601U 12044DU  18242.16625027  .00101399  10129-4  55294-3 0  9994
2 39601  49.8680 225.3347 0523193 256.4120  97.8048 14.89049648245476
1 39315U 94029AFA 18241.18188125  .00000410  00000-0  13485-3 0  9994
2 39315  81.4958  50.1140 0440700  75.6028 289.3616 13.92583991849031
1 39796U 97051ABD 16199.35914276 +.00009090 +00000-0 +23995-2 0  9997
2 39796 086.3762 061.6930 0075019 309.1445 048.0273 14.47154394054040
1 39719U 92093KK  18241.54648413 -.00000010  00000-0  23885-4 0  9995
2 39719  71.2972 191.7685 0100190 258.5276 220.8074 13.95578794242966
1 39318U 94029AFD 18241.94281514 +.00000285 +00000-0 +43674-4 0  9991
2 39318 081.9561 322.4662 0200910 293.3016 189.8027 14.58090698862479
1 39583U 93036BUN 18231.16623218 +.00000713 +00000-0 +21663-3 0  9995
2 39583 073.9388 173.6784 0202036 152.1349 209.0803 14.32869307233274
1 39706U 92060H   18235.62400185 -.00000283  00000-0  00000+0 0  9990
2 39706   7.7718  43.0632 7046618 112.4147 353.3697  2.16027807114912
1 39848U 92093LA  18221.43412473  .00000704  00000-0  25770-3 0  9992
2 39848  71.2374 252.9801 0059623 241.3776 118.1354 14.35201812753601
1 39545U 93036BUB 18242.01159990  .00000668  00000-0  37574-3 0  9997
2 39545  73.9377 113.1168 0207571 220.7959 206.9506 14.02142981355251
1 39802U 08046P   18210.17538216 +.00047846 +00000-0 +37859-2 0  9998
2 39802 064.8459 281.7168 5649610 014.2484 356.7673 04.62182229066507
1 39722U 92093KN  18241.39135625 +.00000127 +00000-0 +11376-3 0  9997
2 39722 070.8947 125.8577 0105977 121.1255 000.0642 13.99196568222893
1 39321U 94029AFG 18241.08257541 +.00000234 +00000-0 +81418-4 0  9995
2 39321 082.2933 003.8909 0456791 300.5352 055.1468 13.87600419258571
1 39327U 08011DE  18240.45842056 -.00000256  00000-0 -23989-2 0  9991
2 39327  49.7964 331.5167 6551434   5.7352  16.3237  2.94944499 70622
1 39586U 93036BUR 18210.08828910 -.00000159 +00000-0 -63427-4 0  9993
2 39586 074.0128 357.8526 0107641 032.4950 086.6193 14.16681093227927
1 39305U 92093JW  18241.23879809  .00000071  00000-0  76100-4 0  9991
2 39305  70.9616 101.2649 0095086 262.8432 209.1956 14.00731209859044
1 39784U 97051AAR 15164.96945914  .00026349  00000-0  69316-2 0  9998
2 39784  86.3833 256.0269 0088362 250.2654  82.3773 14.46628153174917
1 39709U 92093JZ  18236.72345342 +.00000251 +00000-0 +21396-3 0  9993
2 39709 071.1473 274.0147 0145428 333.7918 025.5882 13.91471808220989
1 39308U 94029AET 18241.23143902 +.00000224 +00000-0 +50955-4 0  9993
2 39308 081.9655 064.4723 0454349 030.7273 331.9668 14.03462965278672
1 39851U 92093LD  18241.90624512 +.00001516 +00000-0 +61550-3 0  9997
2 39851 071.0917 086.2540 0134832 224.6978 134.3222 14.24378945190203
1 39548U 93036BUE 18241.64185479  .00001942  00000-0  39812-3 0  9992
2 39548  74.0131 348.4638 0011974 257.7302 163.3361 14.61398073344748
1 39627U 14014D   18241.79010351  .00000368  00000-0  15376-3 0  9991
2 39627  98.1189 180.1015 0182158 104.8196 257.3241 14.22632414229124
1 39691U 91009DE  18241.89433085 +.00000175 +00000-0 +17454-2 0  9999
2 39691 074.0684 193.7286 0140713 021.9855 338.7137 12.21306453172167
1 39835U 91009DT  18232.80652346  .00000263  00000-0  24668-2 0  9996
2 39835  74.0455 167.9605 0183419   0.3290 359.7835 12.22534078594517
1 39838U 91009DW  15233.73488094 -.00000266 +00000-0 -25347-2 0  9996
2 39838 074.1171 017.2210 0231481 324.4522 034.1270 12.10069549411918
